{
  "norad_id": 63018,
  "name": "STARLINK-32870",
  "history": [
    {
      "epoch": "2026-03-28T17:54:50.477184Z",
      "apogee_km": 484.0080473609178,
      "perigee_km": 482.0176277930368,
      "latitude_deg": 4.005890592414823e-05,
      "longitude_deg": 133.62408253822105,
      "height_km": 482.7617546222413,
      "semi_major_axis_km": 6861.149837576977,
      "eccentricity": 0.00014505,
      "inclination_deg": 42.9983,
      "raan_deg": 228.4968,
      "arg_perigee_deg": 271.5912,
      "mean_anomaly_deg": 88.4774,
      "mean_motion_rev_day": 15.27592109
    },
    {
      "epoch": "2026-03-30T01:17:57.629472Z",
      "apogee_km": 483.7408592814436,
      "perigee_km": 482.2259238989809,
      "latitude_deg": 8.557376755698028e-06,
      "longitude_deg": 14.167998918688392,
      "height_km": 482.84437336425503,
      "semi_major_axis_km": 6861.1203915902115,
      "eccentricity": 0.0001104,
      "inclination_deg": 42.9981,
      "raan_deg": 221.1095,
      "arg_perigee_deg": 263.5749,
      "mean_anomaly_deg": 96.4977,
      "mean_motion_rev_day": 15.27601943
    }
  ]
}